start=new Date('2022-06-09T00:00:00.000Z').valueOf();
sats=[{"OBJECT_ID":"2022-025AG","REV_AT_EPOCH":"1531","DECAY_DATE":null,"REF_FRAME":"TEME","CLASSIFICATION_TYPE":"U","COUNTRY_CODE":"US","ARG_OF_PERICENTER":"71.6856","PERIOD":"95.439","FILE":"3485400","ELEMENT_SET_NO":"999","RA_OF_ASC_NODE":"69.7522","RCS_SIZE":"LARGE","SEMIMAJOR_AXIS":"6917.929","EPOCH":"2022-06-08T14:00:01.000224","MEAN_MOTION_DOT":"0.00022428","MEAN_MOTION_DDOT":"0.0000000000000","TLE_LINE1":"1 51986U 22025AG  22159.58334491  .00022428  00000-0  14234-2 0  9990","BSTAR":"0.00142340000000","OBJECT_NAME":"STARLINK-3645","MEAN_ELEMENT_THEORY":"SGP4","APOAPSIS":"540.863","ECCENTRICITY":"0.00015450","MEAN_MOTION":"15.08823967","PERIAPSIS":"538.726","MEAN_ANOMALY":"250.6000","NORAD_CAT_ID":"51986","TIME_SYSTEM":"UTC","SITE":"AFETR","GP_ID":"205604688","TLE_LINE2":"2 51986  53.2181  69.7522 0001545  71.6856 250.6000 15.08823967 15312","CENTER_NAME":"EARTH","OBJECT_TYPE":"PAYLOAD","INCLINATION":"53.2181","LAUNCH_DATE":"2022-03-09","EPHEMERIS_TYPE":"0"},{"ELEMENT_SET_NO":"999","SEMIMAJOR_AXIS":"6917.839","RCS_SIZE":"LARGE","MEAN_MOTION_DOT":"-0.00050104","EPOCH":"2022-06-08T22:00:01.999584","RA_OF_ASC_NODE":"68.2564","MEAN_MOTION_DDOT":"0.0000000000000","TLE_LINE1":"1 51987U 22025AH  22159.91668981 -.00050104  00000-0 -31508-2 0  9999","BSTAR":"-0.00315080000000","OBJECT_NAME":"STARLINK-3644","MEAN_ELEMENT_THEORY":"SGP4","APOAPSIS":"540.954","OBJECT_ID":"2022-025AH","REV_AT_EPOCH":"1536","DECAY_DATE":null,"REF_FRAME":"TEME","CLASSIFICATION_TYPE":"U","COUNTRY_CODE":"US","PERIOD":"95.437","ARG_OF_PERICENTER":"60.0150","FILE":"3486001","SITE":"AFETR","GP_ID":"205639644","TLE_LINE2":"2 51987  53.2172  68.2564 0001807  60.0150 193.8889 15.08853697 15364","CENTER_NAME":"EARTH","OBJECT_TYPE":"PAYLOAD","INCLINATION":"53.2172","LAUNCH_DATE":"2022-03-09","EPHEMERIS_TYPE":"0","ECCENTRICITY":"0.00018070","MEAN_MOTION":"15.08853697","MEAN_ANOMALY":"193.8889","PERIAPSIS":"538.453","NORAD_CAT_ID":"51987","TIME_SYSTEM":"UTC"},{"OBJECT_ID":"2022-025AJ","REV_AT_EPOCH":"1533","DECAY_DATE":null,"REF_FRAME":"TEME","CLASSIFICATION_TYPE":"U","COUNTRY_CODE":"US","FILE":"3485436","PERIOD":"95.438","ARG_OF_PERICENTER":"65.9611","RCS_SIZE":"LARGE","RA_OF_ASC_NODE":"69.7513","SEMIMAJOR_AXIS":"6917.904","EPOCH":"2022-06-08T14:00:01.000224","MEAN_MOTION_DOT":"0.00003568","ELEMENT_SET_NO":"999","MEAN_MOTION_DDOT":"0.0000000000000","TLE_LINE1":"1 51988U 22025AJ  22159.58334491  .00003568  00000-0  24218-3 0  9990","BSTAR":"0.00024218000000","OBJECT_NAME":"STARLINK-3640","APOAPSIS":"540.794","MEAN_ELEMENT_THEORY":"SGP4","ECCENTRICITY":"0.00014820","MEAN_MOTION":"15.08832301","PERIAPSIS":"538.744","MEAN_ANOMALY":"276.3344","NORAD_CAT_ID":"51988","TIME_SYSTEM":"UTC","SITE":"AFETR","GP_ID":"205605941","TLE_LINE2":"2 51988  53.2180  69.7513 0001482  65.9611 276.3344 15.08832301 15338","CENTER_NAME":"EARTH","OBJECT_TYPE":"PAYLOAD","INCLINATION":"53.2180","LAUNCH_DATE":"2022-03-09","EPHEMERIS_TYPE":"0"},{"TIME_SYSTEM":"UTC","NORAD_CAT_ID":"51989","MEAN_ANOMALY":"213.2477","PERIAPSIS":"538.404","MEAN_MOTION":"15.08848551","ECCENTRICITY":"0.00019010","LAUNCH_DATE":"2022-03-09","EPHEMERIS_TYPE":"0","INCLINATION":"53.2178","OBJECT_TYPE":"PAYLOAD","CENTER_NAME":"EARTH","TLE_LINE2":"2 51989  53.2178  68.2570 0001901  60.6537 213.2477 15.08848551 15373","GP_ID":"205640118","SITE":"AFETR","ARG_OF_PERICENTER":"60.6537","PERIOD":"95.437","FILE":"3486012","COUNTRY_CODE":"US","CLASSIFICATION_TYPE":"U","DECAY_DATE":null,"REF_FRAME":"TEME","REV_AT_EPOCH":"1537","OBJECT_ID":"2022-025AK","MEAN_ELEMENT_THEORY":"SGP4","APOAPSIS":"541.034","OBJECT_NAME":"STARLINK-3642","BSTAR":"-0.00132090000000","TLE_LINE1":"1 51989U 22025AK  22159.91668981 -.00021254  00000-0 -13209-2 0  9993","MEAN_MOTION_DDOT":"0.0000000000000","ELEMENT_SET_NO":"999","SEMIMAJOR_AXIS":"6917.854","RCS_SIZE":"LARGE","MEAN_MOTION_DOT":"-0.00021254","EPOCH":"2022-06-08T22:00:01.999584","RA_OF_ASC_NODE":"68.2570"},{"APOAPSIS":"452.090","MEAN_ELEMENT_THEORY":"SGP4","BSTAR":"-0.02029600000000","OBJECT_NAME":"STARLINK-3657","TLE_LINE1":"1 51990U 22025AL  22159.91668981 -.00717850  00000-0 -20296-1 0  9992","RCS_SIZE":"LARGE","SEMIMAJOR_AXIS":"6829.347","EPOCH":"2022-06-08T22:00:01.999584","RA_OF_ASC_NODE":"50.3827","MEAN_MOTION_DOT":"-0.00717850","ELEMENT_SET_NO":"999","MEAN_MOTION_DDOT":"0.0000000000000","COUNTRY_CODE":"US","FILE":"3486012","PERIOD":"93.611","ARG_OF_PERICENTER":"77.2231","CLASSIFICATION_TYPE":"U","REV_AT_EPOCH":"1561","REF_FRAME":"TEME","DECAY_DATE":null,"OBJECT_ID":"2022-025AL","EPHEMERIS_TYPE":"0","LAUNCH_DATE":"2022-03-09","OBJECT_TYPE":"PAYLOAD","INCLINATION":"53.2172","TLE_LINE2":"2 51990  53.2172  50.3827 0001285  77.2231  65.8366 15.38274899 15612","CENTER_NAME":"EARTH","SITE":"AFETR","GP_ID":"205640122","TIME_SYSTEM":"UTC","NORAD_CAT_ID":"51990","MEAN_ANOMALY":"65.8366","PERIAPSIS":"450.335","ECCENTRICITY":"0.00012850","MEAN_MOTION":"15.38274899"},{"RCS_SIZE":"LARGE","EPOCH":"2022-06-08T14:00:01.000224","SEMIMAJOR_AXIS":"6917.901","RA_OF_ASC_NODE":"69.7514","MEAN_MOTION_DOT":"0.00006121","ELEMENT_SET_NO":"999","MEAN_MOTION_DDOT":"0.0000000000000","TLE_LINE1":"1 51991U 22025AM  22159.58334491  .00006121  00000-0  40241-3 0  9996","BSTAR":"0.00040241000000","OBJECT_NAME":"STARLINK-3652","APOAPSIS":"540.930","MEAN_ELEMENT_THEORY":"SGP4","OBJECT_ID":"2022-025AM","REV_AT_EPOCH":"1531","DECAY_DATE":null,"REF_FRAME":"TEME","CLASSIFICATION_TYPE":"U","COUNTRY_CODE":"US","FILE":"3485437","PERIOD":"95.438","ARG_OF_PERICENTER":"51.2404","SITE":"AFETR","GP_ID":"205605457","TLE_LINE2":"2 51991  53.2184  69.7514 0001683  51.2404 251.0573 15.08833318 15319","CENTER_NAME":"EARTH","OBJECT_TYPE":"PAYLOAD","INCLINATION":"53.2184","LAUNCH_DATE":"2022-03-09","EPHEMERIS_TYPE":"0","ECCENTRICITY":"0.00016830","MEAN_MOTION":"15.08833318","PERIAPSIS":"538.602","MEAN_ANOMALY":"251.0573","NORAD_CAT_ID":"51991","TIME_SYSTEM":"UTC"},{"TIME_SYSTEM":"UTC","NORAD_CAT_ID":"51992","MEAN_ANOMALY":"85.5357","PERIAPSIS":"448.548","MEAN_MOTION":"15.38868275","ECCENTRICITY":"0.00013310","EPHEMERIS_TYPE":"0","LAUNCH_DATE":"2022-03-09","INCLINATION":"53.2173","OBJECT_TYPE":"PAYLOAD","CENTER_NAME":"EARTH","TLE_LINE2":"2 51992  53.2173  50.4126 0001331  75.9547  85.5357 15.38868275 15633","GP_ID":"205639663","SITE":"AFETR","FILE":"3486012","ARG_OF_PERICENTER":"75.9547","PERIOD":"93.575","COUNTRY_CODE":"US","CLASSIFICATION_TYPE":"U","DECAY_DATE":null,"REF_FRAME":"TEME","REV_AT_EPOCH":"1563","OBJECT_ID":"2022-025AN","APOAPSIS":"450.365","MEAN_ELEMENT_THEORY":"SGP4","OBJECT_NAME":"STARLINK-3643","BSTAR":"-0.01988100000000","TLE_LINE1":"1 51992U 22025AN  22159.91668981 -.00717089  00000-0 -19881-1 0  9996","MEAN_MOTION_DDOT":"0.0000000000000","RCS_SIZE":"LARGE","EPOCH":"2022-06-08T22:00:01.999584","SEMIMAJOR_AXIS":"6827.592","RA_OF_ASC_NODE":"50.4126","MEAN_MOTION_DOT":"-0.00717089","ELEMENT_SET_NO":"999"},{"INCLINATION":"53.2208","OBJECT_TYPE":"PAYLOAD","LAUNCH_DATE":"2022-03-09","EPHEMERIS_TYPE":"0","GP_ID":"205604702","SITE":"AFETR","CENTER_NAME":"EARTH","TLE_LINE2":"2 51993  53.2208  69.7431 0001712  60.4575 301.8190 15.08818570 15334","NORAD_CAT_ID":"51993","TIME_SYSTEM":"UTC","MEAN_MOTION":"15.08818570","ECCENTRICITY":"0.00017120","PERIAPSIS":"538.627","MEAN_ANOMALY":"301.8190","OBJECT_NAME":"STARLINK-3648","BSTAR":"0.00209890000000","APOAPSIS":"540.995","MEAN_ELEMENT_THEORY":"SGP4","MEAN_MOTION_DDOT":"0.0000000000000","EPOCH":"2022-06-08T14:00:01.000224","RCS_SIZE":"LARGE","SEMIMAJOR_AXIS":"6917.946","MEAN_MOTION_DOT":"0.00033254","RA_OF_ASC_NODE":"69.7431","ELEMENT_SET_NO":"999","TLE_LINE1":"1 51993U 22025AP  22159.58334491  .00033254  00000-0  20989-2 0  9991","CLASSIFICATION_TYPE":"U","FILE":"3485401","PERIOD":"95.439","ARG_OF_PERICENTER":"60.4575","COUNTRY_CODE":"US","OBJECT_ID":"2022-025AP","DECAY_DATE":null,"REF_FRAME":"TEME","REV_AT_EPOCH":"1533"},{"ECCENTRICITY":"0.00011800","MEAN_MOTION":"15.39577766","PERIAPSIS":"446.554","MEAN_ANOMALY":"34.8692","NORAD_CAT_ID":"51994","TIME_SYSTEM":"UTC","SITE":"AFETR","GP_ID":"205637930","TLE_LINE2":"2 51994  53.2172  51.9901 0001180  84.2984  34.8692 15.39577766  1302","CENTER_NAME":"EARTH","OBJECT_TYPE":"PAYLOAD","INCLINATION":"53.2172","EPHEMERIS_TYPE":"0","LAUNCH_DATE":"2022-03-09","OBJECT_ID":"2022-025AQ","REV_AT_EPOCH":"130","REF_FRAME":"TEME","DECAY_DATE":null,"CLASSIFICATION_TYPE":"U","COUNTRY_CODE":"US","ARG_OF_PERICENTER":"84.2984","PERIOD":"93.532","FILE":"3485745","ELEMENT_SET_NO":"999","RCS_SIZE":"LARGE","SEMIMAJOR_AXIS":"6825.494","MEAN_MOTION_DOT":"-0.00719809","EPOCH":"2022-06-08T14:00:01.000224","RA_OF_ASC_NODE":"51.9901","MEAN_MOTION_DDOT":"0.0000000000000","TLE_LINE1":"1 51994U 22025AQ  22159.58334491 -.00719809  00000-0 -19501-1 0  9998","BSTAR":"-0.01950100000000","OBJECT_NAME":"STARLINK-3647","MEAN_ELEMENT_THEORY":"SGP4","APOAPSIS":"448.164"},{"INCLINATION":"53.2173","OBJECT_TYPE":"PAYLOAD","EPHEMERIS_TYPE":"0","LAUNCH_DATE":"2022-03-09","GP_ID":"205639677","SITE":"AFETR","CENTER_NAME":"EARTH","TLE_LINE2":"2 51995  53.2173  50.3926 0001298  76.7859  72.5096 15.38472650 15601","NORAD_CAT_ID":"51995","TIME_SYSTEM":"UTC","MEAN_MOTION":"15.38472650","ECCENTRICITY":"0.00012980","PERIAPSIS":"449.741","MEAN_ANOMALY":"72.5096","OBJECT_NAME":"STARLINK-3636","BSTAR":"-0.02015500000000","MEAN_ELEMENT_THEORY":"SGP4","APOAPSIS":"451.514","MEAN_MOTION_DDOT":"0.0000000000000","ELEMENT_SET_NO":"999","RCS_SIZE":"LARGE","EPOCH":"2022-06-08T22:00:01.999584","SEMIMAJOR_AXIS":"6828.762","MEAN_MOTION_DOT":"-0.00717533","RA_OF_ASC_NODE":"50.3926","TLE_LINE1":"1 51995U 22025AR  22159.91668981 -.00717533  00000-0 -20155-1 0  9999","CLASSIFICATION_TYPE":"U","ARG_OF_PERICENTER":"76.7859","PERIOD":"93.599","FILE":"3486002","COUNTRY_CODE":"US","OBJECT_ID":"2022-025AR","DECAY_DATE":null,"REF_FRAME":"TEME","REV_AT_EPOCH":"1560"}];
